CCSDS_OMM_VERS = 2.0
CREATION_DATE  = 
ORIGINATOR     = 

OBJECT_NAME    = STARLINK-36810
OBJECT_ID      = 2026-035V
CENTER_NAME    = EARTH
REF_FRAME      = TEME
TIME_SYSTEM    = UTC
MEAN_ELEMENT_THEORY = SGP/SGP4

EPOCH          = 2026-03-19T20:00:01.999008
MEAN_MOTION    = 15.75201837
ECCENTRICITY   = .0001223
INCLINATION    = 97.2865
RA_OF_ASC_NODE = 11.7711
ARG_OF_PERICENTER = 90.7404
MEAN_ANOMALY   = 253.8887

EPHEMERIS_TYPE = 0
CLASSIFICATION_TYPE = U
NORAD_CAT_ID   = 67898
ELEMENT_SET_NO = 999
REV_AT_EPOCH   = 539
BSTAR          = -.43164E-4
MEAN_MOTION_DOT = -.6566E-4
MEAN_MOTION_DDOT = 0

CCSDS_OMM_VERS = 2.0
CREATION_DATE  = 
ORIGINATOR     = 

OBJECT_NAME    = STARLINK-36878
OBJECT_ID      = 2026-035W
CENTER_NAME    = EARTH
REF_FRAME      = TEME
TIME_SYSTEM    = UTC
MEAN_ELEMENT_THEORY = SGP/SGP4

EPOCH          = 2026-03-19T18:22:10.536672
MEAN_MOTION    = 15.80961324
ECCENTRICITY   = .0001662
INCLINATION    = 97.2898
RA_OF_ASC_NODE = 11.7139
ARG_OF_PERICENTER = 121.6632
MEAN_ANOMALY   = 238.4799

EPHEMERIS_TYPE = 0
CLASSIFICATION_TYPE = U
NORAD_CAT_ID   = 67899
ELEMENT_SET_NO = 999
REV_AT_EPOCH   = 543
BSTAR          = .15796E-2
MEAN_MOTION_DOT = .315722E-2
MEAN_MOTION_DDOT = 0

CCSDS_OMM_VERS = 2.0
CREATION_DATE  = 
ORIGINATOR     = 

OBJECT_NAME    = STARLINK-36361
OBJECT_ID      = 2026-035X
CENTER_NAME    = EARTH
REF_FRAME      = TEME
TIME_SYSTEM    = UTC
MEAN_ELEMENT_THEORY = SGP/SGP4

EPOCH          = 2026-03-19T18:21:05.486112
MEAN_MOTION    = 15.80911170
ECCENTRICITY   = .0001315
INCLINATION    = 97.2900
RA_OF_ASC_NODE = 11.7152
ARG_OF_PERICENTER = 119.5372
MEAN_ANOMALY   = 240.6027

EPHEMERIS_TYPE = 0
CLASSIFICATION_TYPE = U
NORAD_CAT_ID   = 67900
ELEMENT_SET_NO = 999
REV_AT_EPOCH   = 543
BSTAR          = .11586E-2
MEAN_MOTION_DOT = .228688E-2
MEAN_MOTION_DDOT = 0

CCSDS_OMM_VERS = 2.0
CREATION_DATE  = 
ORIGINATOR     = 

OBJECT_NAME    = STARLINK-36336
OBJECT_ID      = 2026-035Y
CENTER_NAME    = EARTH
REF_FRAME      = TEME
TIME_SYSTEM    = UTC
MEAN_ELEMENT_THEORY = SGP/SGP4

EPOCH          = 2026-03-19T20:00:01.999008
MEAN_MOTION    = 15.75129565
ECCENTRICITY   = .0001436
INCLINATION    = 97.2861
RA_OF_ASC_NODE = 11.7875
ARG_OF_PERICENTER = 87.5086
MEAN_ANOMALY   = 291.1419

EPHEMERIS_TYPE = 0
CLASSIFICATION_TYPE = U
NORAD_CAT_ID   = 67901
ELEMENT_SET_NO = 999
REV_AT_EPOCH   = 543
BSTAR          = .52454E-3
MEAN_MOTION_DOT = .78627E-3
MEAN_MOTION_DDOT = 0

CCSDS_OMM_VERS = 2.0
CREATION_DATE  = 
ORIGINATOR     = 

OBJECT_NAME    = STARLINK-36876
OBJECT_ID      = 2026-035Z
CENTER_NAME    = EARTH
REF_FRAME      = TEME
TIME_SYSTEM    = UTC
MEAN_ELEMENT_THEORY = SGP/SGP4

EPOCH          = 2026-03-19T18:20:00.627360
MEAN_MOTION    = 15.80906905
ECCENTRICITY   = .0000901
INCLINATION    = 97.2882
RA_OF_ASC_NODE = 11.7172
ARG_OF_PERICENTER = 45.4440
MEAN_ANOMALY   = 314.6902

EPHEMERIS_TYPE = 0
CLASSIFICATION_TYPE = U
NORAD_CAT_ID   = 67902
ELEMENT_SET_NO = 999
REV_AT_EPOCH   = 543
BSTAR          = .13963E-2
MEAN_MOTION_DOT = .277143E-2
MEAN_MOTION_DDOT = 0

CCSDS_OMM_VERS = 2.0
CREATION_DATE  = 
ORIGINATOR     = 

OBJECT_NAME    = STARLINK-36257
OBJECT_ID      = 2026-035AA
CENTER_NAME    = EARTH
REF_FRAME      = TEME
TIME_SYSTEM    = UTC
MEAN_ELEMENT_THEORY = SGP/SGP4

EPOCH          = 2026-03-19T18:48:14.662656
MEAN_MOTION    = 15.75254158
ECCENTRICITY   = .0001392
INCLINATION    = 97.2880
RA_OF_ASC_NODE = 11.6926
ARG_OF_PERICENTER = 106.1671
MEAN_ANOMALY   = 253.9748

EPHEMERIS_TYPE = 0
CLASSIFICATION_TYPE = U
NORAD_CAT_ID   = 67903
ELEMENT_SET_NO = 999
REV_AT_EPOCH   = 543
BSTAR          = .11364E-2
MEAN_MOTION_DOT = .173336E-2
MEAN_MOTION_DDOT = 0

CCSDS_OMM_VERS = 2.0
CREATION_DATE  = 
ORIGINATOR     = 

OBJECT_NAME    = STARLINK-36814
OBJECT_ID      = 2026-036A
CENTER_NAME    = EARTH
REF_FRAME      = TEME
TIME_SYSTEM    = UTC
MEAN_ELEMENT_THEORY = SGP/SGP4

EPOCH          = 2026-03-19T14:05:18.037248
MEAN_MOTION    = 15.50600116
ECCENTRICITY   = .0003081
INCLINATION    = 43.0032
RA_OF_ASC_NODE = 191.3092
ARG_OF_PERICENTER = 272.4927
MEAN_ANOMALY   = 87.5580

EPHEMERIS_TYPE = 0
CLASSIFICATION_TYPE = U
NORAD_CAT_ID   = 67904
ELEMENT_SET_NO = 999
REV_AT_EPOCH   = 521
BSTAR          = .1263E-2
MEAN_MOTION_DOT = .74525E-3
MEAN_MOTION_DDOT = 0

CCSDS_OMM_VERS = 2.0
CREATION_DATE  = 
ORIGINATOR     = 

OBJECT_NAME    = STARLINK-36729
OBJECT_ID      = 2026-036B
CENTER_NAME    = EARTH
REF_FRAME      = TEME
TIME_SYSTEM    = UTC
MEAN_ELEMENT_THEORY = SGP/SGP4

EPOCH          = 2026-03-19T20:00:01.999008
MEAN_MOTION    = 15.50526761
ECCENTRICITY   = .0001522
INCLINATION    = 43.0004
RA_OF_ASC_NODE = 189.2231
ARG_OF_PERICENTER = 290.3056
MEAN_ANOMALY   = 268.6439

EPHEMERIS_TYPE = 0
CLASSIFICATION_TYPE = U
NORAD_CAT_ID   = 67905
ELEMENT_SET_NO = 999
REV_AT_EPOCH   = 527
BSTAR          = .1195E-2
MEAN_MOTION_DOT = .70262E-3
MEAN_MOTION_DDOT = 0

CCSDS_OMM_VERS = 2.0
CREATION_DATE  = 
ORIGINATOR     = 

OBJECT_NAME    = STARLINK-36763
OBJECT_ID      = 2026-036C
CENTER_NAME    = EARTH
REF_FRAME      = TEME
TIME_SYSTEM    = UTC
MEAN_ELEMENT_THEORY = SGP/SGP4

EPOCH          = 2026-03-19T20:00:01.999008
MEAN_MOTION    = 15.50486116
ECCENTRICITY   = .0001912
INCLINATION    = 43.0002
RA_OF_ASC_NODE = 189.1498
ARG_OF_PERICENTER = 287.3273
MEAN_ANOMALY   = 301.4050

EPHEMERIS_TYPE = 0
CLASSIFICATION_TYPE = U
NORAD_CAT_ID   = 67906
ELEMENT_SET_NO = 999
REV_AT_EPOCH   = 527
BSTAR          = .12833E-2
MEAN_MOTION_DOT = .75422E-3
MEAN_MOTION_DDOT = 0

CCSDS_OMM_VERS = 2.0
CREATION_DATE  = 
ORIGINATOR     = 

OBJECT_NAME    = STARLINK-36742
OBJECT_ID      = 2026-036D
CENTER_NAME    = EARTH
REF_FRAME      = TEME
TIME_SYSTEM    = UTC
MEAN_ELEMENT_THEORY = SGP/SGP4

EPOCH          = 2026-03-19T20:00:01.999008
MEAN_MOTION    = 15.50528083
ECCENTRICITY   = .0001287
INCLINATION    = 43.0003
RA_OF_ASC_NODE = 189.2000
ARG_OF_PERICENTER = 290.0294
MEAN_ANOMALY   = 278.1347

EPHEMERIS_TYPE = 0
CLASSIFICATION_TYPE = U
NORAD_CAT_ID   = 67907
ELEMENT_SET_NO = 999
REV_AT_EPOCH   = 527
BSTAR          = .11903E-2
MEAN_MOTION_DOT = .69987E-3
MEAN_MOTION_DDOT = 0

CCSDS_OMM_VERS = 2.0
CREATION_DATE  = 
ORIGINATOR     = 

OBJECT_NAME    = STARLINK-36827
OBJECT_ID      = 2026-036E
CENTER_NAME    = EARTH
REF_FRAME      = TEME
TIME_SYSTEM    = UTC
MEAN_ELEMENT_THEORY = SGP/SGP4

EPOCH          = 2026-03-19T20:00:01.999008
MEAN_MOTION    = 15.50611437
ECCENTRICITY   = .0002027
INCLINATION    = 43.0005
RA_OF_ASC_NODE = 188.8875
ARG_OF_PERICENTER = 275.0600
MEAN_ANOMALY   = 59.8066

EPHEMERIS_TYPE = 0
CLASSIFICATION_TYPE = U
NORAD_CAT_ID   = 67908
ELEMENT_SET_NO = 999
REV_AT_EPOCH   = 527
BSTAR          = -.83531E-3
MEAN_MOTION_DOT = -.49098E-3
MEAN_MOTION_DDOT = 0

CCSDS_OMM_VERS = 2.0
CREATION_DATE  = 
ORIGINATOR     = 

OBJECT_NAME    = STARLINK-36822
OBJECT_ID      = 2026-036F
CENTER_NAME    = EARTH
REF_FRAME      = TEME
TIME_SYSTEM    = UTC
MEAN_ELEMENT_THEORY = SGP/SGP4

EPOCH          = 2026-03-19T20:00:01.999008
MEAN_MOTION    = 15.50526554
ECCENTRICITY   = .0001859
INCLINATION    = 43.0001
RA_OF_ASC_NODE = 189.1422
ARG_OF_PERICENTER = 280.3255
MEAN_ANOMALY   = 311.2226

EPHEMERIS_TYPE = 0
CLASSIFICATION_TYPE = U
NORAD_CAT_ID   = 67909
ELEMENT_SET_NO = 999
REV_AT_EPOCH   = 527
BSTAR          = .14374E-2
MEAN_MOTION_DOT = .84743E-3
MEAN_MOTION_DDOT = 0

