STARLINK-36810          
1 67898U 26035V   26078.83335647 -.00006566  00000+0 -43164-4 0  9992
2 67898  97.2865  11.7711 0001223  90.7404 253.8887 15.75201837  5394
STARLINK-36878          
1 67899U 26035W   26078.76539973  .00315722  00000+0  15796-2 0  9996
2 67899  97.2898  11.7139 0001662 121.6632 238.4799 15.80961324  5435
STARLINK-36361          
1 67900U 26035X   26078.76464683  .00228688  00000+0  11586-2 0  9991
2 67900  97.2900  11.7152 0001315 119.5372 240.6027 15.80911170  5432
STARLINK-36336          
1 67901U 26035Y   26078.83335647  .00078627  00000+0  52454-3 0  9993
2 67901  97.2861  11.7875 0001436  87.5086 291.1419 15.75129565  5430
STARLINK-36876          
1 67902U 26035Z   26078.76389615  .00277143  00000+0  13963-2 0  9995
2 67902  97.2882  11.7172 0000901  45.4440 314.6902 15.80906905  5432
STARLINK-36257          
1 67903U 26035AA  26078.78350304  .00173336  00000+0  11364-2 0  9993
2 67903  97.2880  11.6926 0001392 106.1671 253.9748 15.75254158  5436
STARLINK-36814          
1 67904U 26036A   26078.58701432  .00074525  00000+0  12630-2 0  9992
2 67904  43.0032 191.3092 0003081 272.4927  87.5580 15.50600116  5216
STARLINK-36729          
1 67905U 26036B   26078.83335647  .00070262  00000+0  11950-2 0  9990
2 67905  43.0004 189.2231 0001522 290.3056 268.6439 15.50526761  5271
STARLINK-36763          
1 67906U 26036C   26078.83335647  .00075422  00000+0  12833-2 0  9995
2 67906  43.0002 189.1498 0001912 287.3273 301.4050 15.50486116  5278
STARLINK-36742          
1 67907U 26036D   26078.83335647  .00069987  00000+0  11903-2 0  9992
2 67907  43.0003 189.2000 0001287 290.0294 278.1347 15.50528083  5278
STARLINK-36827          
1 67908U 26036E   26078.83335647 -.00049098  00000+0 -83531-3 0  9993
2 67908  43.0005 188.8875 0002027 275.0600  59.8066 15.50611437  5271
STARLINK-36822          
1 67909U 26036F   26078.83335647  .00084743  00000+0  14374-2 0  9996
2 67909  43.0001 189.1422 0001859 280.3255 311.2226 15.50526554  5275
